name,tel,address,商店編號,lng,lat,X,Y
全家京江店,225678224,台北市中山區一江街２２號１樓,18902,121.5313512,25.0526739,351017.865,2771827.523
全家錦原店,225412311,台北市中山區中原街１０１號１樓,14452,121.5290416,25.0609288,350794.796,2772744.317
全家新吉原店,225113653,台北市中山區中原街１６號１樓,54113,121.5287854,25.0565351,350763.656,2772257.979
全家市民店,225638109,台北市中山區中山北路一段５８號,18703,121.5206037,25.0485402,349928.554,2771381.515
全家柯達飯店,225417813,台北市中山區中山北路二段１１巷１號、３號,61939,121.5232915,25.0529091,350205.015,2771862.425
全家聚葉店,225716328,台北市中山區中山北路二段１３７巷３４號１樓,16420,121.5251465,25.0616084,350402.671,2772823.865
全家台鑫店,225118851,台北市中山區中山北路二段４４號１樓部份,57449,121.522376,25.0528165,350112.539,2771853.178
全家東南店,225317972,台北市中山區中山北路二段６０號,60550,121.5225344,25.0566022,350133.1,2772272.285
全家新國賓店,225818863,台北市中山區中山北路二段７５－１號１樓,56357,121.5231419,25.0574712,350195.439,2772367.861
全家圓山飯店,228850843,台北市中山區中山北路四段１巷１號１樓（麒麟廳））,57899,121.5261429,25.0785749,350523.677,2774701.878
全家中賓店,225230023,台北市中山區中山里中山北路二段５９之３號１樓,15989,121.523029,25.0559278,350182.183,2772197.047
全家五常店,225067078,台北市中山區五常街５３巷２３號１號,14446,121.5397263,25.0654831,351878.136,2773237.039
全家長通店,225029136,台北市中山區伊通街１０８號１樓,14513,121.5346835,25.0540623,351355.722,2771977.647
全家金通店,225181554,台北市中山區伊通街５８號,52371,121.5346385,25.0515261,351348.139,2771696.803
全家新北鄰店,225325010,台北市中山區北安路４５８巷４１弄４８號１樓,55780,121.546355,25.078808,352562.697,2774705.612
全家永安店,225322254,台北市中山區北安路６３０巷７號１樓,14451,121.549484,25.08286,352883.127,2775150.993
全家美華店,285095070,台北市中山區北安路８１９之１號,12905,121.5562243,25.0849942,353565.502,2775380.082
全家京貿店,225066873,台北市中山區南京東路三段６５號,14196,121.538393,25.052253,351727.799,2771773.212
全家鑫興亞店,225117690,台北市中山區南京東路二段２０號１樓,63227,121.5288485,25.051887,350764.423,2771743.115
全家京林店,225674711,台北市中山區南京東路二段７２號１樓、７２－２號,59375,121.5307203,25.0518589,350953.234,2771737.95
全家中山捷運站店,225507063,台北市中山區南京西路１６號Ｂ１,61268,121.5202994,25.0528429,349903.065,2771858.392
全家合江店,225185276,台北市中山區合江街８７號一樓,53480,121.5393027,25.059226,351827.918,2772544.504
全家德惠店,225953593,台北市中山區吉林路４４８號,10198,121.5302321,25.066711,350921.857,2773383.412
全家松平店,225318666,台北市中山區四平街４７號,11502,121.5323019,25.0538263,351115.165,2771954.115
全家大直店,225328875,台北市中山區大直街３３巷１號,11115,121.5465688,25.0821721,352588.27,2775077.966
全家建國北路店,225170327,台北市中山區建國北路一段１４６號１樓,60174,121.536358,25.051243,351521.28,2771663.571
全家欣濱江店,225159357,台北市中山區建國北路三段１０９號１樓,62783,121.5361284,25.0663408,351516.216,2773335.957
全家建錦店,225065447,台北市中山區建國北路二段１３１號１樓及部分地下室,57357,121.5373197,25.0601891,351629.021,2772653.334
全家南京復興店,227151377,台北市中山區復興北路１５４號１Ｆ,61075,121.5436868,25.0531389,352262.941,2771865.568
全家金復店,228924021,台北市中山區復興北路３５６號１樓,62443,121.5438423,25.0603094,352287.179,2772659.556
全家復崙店,227526542,台北市中山區復興北路３８號１樓,62987,121.5437278,25.0492581,352262.45,2771435.712
全家新復店,225097685,台北市中山區復興北路５１４巷３５號,52308,121.5426953,25.0660747,352178.349,2773299.329
全家興德店,287725312,台北市中山區復興南路一段３８號,10578,121.5436279,25.04548,352247.867,2771017.384
全家新德城店,225995447,台北市中山區德惠街１６－７號,53032,121.5247074,25.0665771,350364.378,2773374.652
全家德林店,225961560,台北市中山區德惠街１７３號,18831,121.5318943,25.0666411,351089.451,2773373.848
全家新農店,225968538,台北市中山區恆安里農安街２６之３號一樓,15837,121.5262391,25.0647173,350516.647,2773166.986
全家撫順店,225927495,台北市中山區撫順街１２之２號１樓,15193,121.5209544,25.0634954,349982.051,2773037.477
全家鑫通店,225817485,台北市中山區新生北路一段１１６號,53679,121.527773,25.0505894,350654.352,2771600.581
全家美林店,225678382,台北市中山區新生北路二段６２巷３８－３號,51313,121.525843,25.0561155,350466.303,2772214.739
全家明水店,285097543,台北市中山區明水路５８１巷１１號１樓,14511,121.5513391,25.0801305,353066.997,2774846.684
全家光輝店,225955703,台北市中山區晴光里德惠街３４之２號一樓,15523,121.5264762,25.0665912,350542.827,2773374.267
全家朱崙店,227528615,台北市中山區朱崙街６７號,16667,121.5423503,25.050064,352124.434,2771526.465
全家松京店,225715929,台北市中山區松江路１２２號１樓,60237,121.5328065,25.0524582,351164.429,2771802.04
全家松茂店,225028713,台北市中山區松江路１２７之１號１樓及地下室,58109,121.5332865,25.0533361,351213.91,2771898.746
全家光華店,225670175,台北市中山區松江路２４之１號,11139,121.5327543,25.0470335,351152.647,2771201.293
全家權勝店,225935820,台北市中山區松江路４００號１樓及地下室,57355,121.5329184,25.06381,351189.357,2773059.172
全家松國店,225024147,台北市中山區松江路４７３號１樓,60056,121.5335301,25.066791,351254.647,2773388.659
全家長松店,225641508,台北市中山區松江路５０號１樓部份,63576,121.5327639,25.0481704,351154.981,2771327.198
全家松好店,225083831,台北市中山區松江路６１之１號１樓,58619,121.5332515,25.0485675,351204.653,2771370.645
全家長林店,225629310,台北市中山區林森北路１０７巷５４號,10693,121.5267982,25.049825,350555.082,2771516.992
全家金林店,225629847,台北市中山區林森北路１０９號１樓,16605,121.5251449,25.0504072,350388.981,2771583.29
全家新林森北路店,225114623,台北市中山區林森北路１１９巷５０號１樓,63321,121.5267654,25.0502902,350552.334,2771568.55
全家復林店,225230478,台北市中山區林森北路１４９－１．１４９－２號１樓,16851,121.525374,25.05148,350413.391,2771701.855
全家欣城店,225411007,台北市中山區林森北路２４７號１樓,63289,121.5257614,25.0539759,350455.488,2771977.859
全家金漾店,225219884,台北市中山區林森北路３０８號,50989,121.525367,25.056147,350418.32,2772218.751
全家林慶店,225672790,台北市中山區林森北路３７６號１樓,57327,121.5254315,25.0579568,350427.012,2772419.122
全家新錦林店,226271008,台北市中山區林森北路３９９巷２４號１樓,62379,121.5261788,25.0593692,350504.108,2772574.729
全家錦富店,225684923,台北市中山區林森北路４２８號１樓,52445,121.5253817,25.0599931,350424.447,2772644.705
全家新林森店,225977209,台北市中山區林森北路６３０號１樓,52544,121.5256092,25.0675597,350456.536,2773482.486
全家美麗店,285011290,台北市中山區樂群二路１４２號１樓,50173,121.5568535,25.0797215,353622.727,2774795.435
全家樂群店,285095167,台北市中山區樂群二路１８６號,11707,121.558381,25.079513,353776.553,2774770.698
全家時代廣場店,285015684,台北市中山區樂群二路２６５巷２０號,60128,121.5603995,25.0809271,353981.82,2774925.144
全家日津店,225635367,台北市中山區正義里天津街４７號１樓及地下室,10289,121.5231131,25.0501523,350183.683,2771557.295
全家民族店,225185693,台北市中山區民族東路４１０巷２３弄２４號,14417,121.5395513,25.0667374,351861.983,2773376.148
全家江寧店,225171595,台北市中山區民權東路三段６４號１樓,12520,121.5425461,25.0621252,352158.583,2772862.071
全家錦民店,225078797,台北市中山區民權東路二段１５２巷１４號,52465,121.5349805,25.0611749,351394.219,2772765.069
全家新吉林店,225639757,台北市中山區民權東路二段４６號１樓,58815,121.5301017,25.0622469,350903.328,2772889.138
全家民權西路店,225994884,台北市中山區民權西路３５號１樓,56511,121.52115,25.063111,350001.317,2772994.687
全家中山民權店,225113070,台北市中山區民權西路３８之１號１樓,60773,121.5212091,25.0626038,350006.665,2772938.448
全家玉林店,225222731,台北市中山區民生東路一段２７巷１５號,14670,121.5251401,25.0586922,350398.503,2772500.891
全家福泰店,225413026,台北市中山區民生東路一段３６號１樓,14442,121.524309,25.057881,350313.678,2772411.962
全家民佳店,225038763,台北市中山區民生東路二段１５５號１樓,57201,121.535793,25.058127,351472.531,2772426.615
全家新馬偕店,225117837,台北市中山區民生西路３３號１－４樓,61421,121.5210732,25.0578451,349987.191,2772411.552
全家雙全店,225217082,台北市中山區民生西路６２號１樓全部,60299,121.5209315,25.0575608,349972.551,2772380.221
全家興安店,225052013,台北市中山區興安街５７號,10242,121.5423073,25.0562159,352127.439,2772207.855
全家松農店,225028032,台北市中山區農安街１６０號,53427,121.5339907,25.0645895,351298.467,2773144.331
全家農安店,225042520,台北市中山區農安街２４９號,10023,121.5348795,25.0647884,351388.367,2773165.388
全家新晴店,225955820,台北市中山區農安街４－１號,50439,121.5230389,25.0648128,350193.929,2773181.086
全家新衡山店,225332342,台北市中山區通北街１１１號,55346,121.5380032,25.084304,351726.862,2775323.403
全家錦江店,225638875,台北市中山區錦州街２１５號,10398,121.532221,25.0604313,351114.942,2772685.731
全家新北大店,225172305,台北市中山區錦州街４２７號,54566,121.5424901,25.0603117,352150.769,2772661.28
全家錦西店,225673231,台北市中山區錦西街８號,11266,121.5217006,25.0601543,350053.282,2772666.613
全家正義店,225239542,台北市中山區長安東路一段５５號,14419,121.5265545,25.0487812,350529.236,2771401.655
全家遼寧店,227405515,台北市中山區長安東路二段２１６號,19772,121.5424494,25.0481678,352132.17,2771316.347
全家本部店,225173149,台北市中山區長安東路二段９９號１樓及２樓,57071,121.5349587,25.0485735,351376.903,2771369.443
全家欣欣店,225314871,台北市中山區長春路１００號１樓,14512,121.5278778,25.0547276,350669.913,2772058.787
全家長賓店,225221603,台北市中山區長春路１５號１樓,61058,121.5237746,25.0550794,350256.378,2772102.262
全家春北店,287707194,台北市中山區長春路４１０號１樓,58403,121.5437483,25.054407,352270.658,2772005.947
全家長春店,225817796,台北市中山區長春路４８號,10600,121.5258268,25.0547693,350463.044,2772065.66
全家雙城店,225996056,台北市中山區雙城街１２之１號,10261,121.524209,25.064542,350311.64,2773149.805
全家金磚店,225994347,台北市中山區雙城街１９巷２號,18705,121.5244534,25.0653415,350337.262,2773238.084
全家雙林店,225992453,台北市中山區雙城街２之２號,18636,121.5242704,25.0632076,350316.221,2773001.947
全家龍京店,225082793,台北市中山區龍江路１０２號１樓,58620,121.5403709,25.0526222,351927.789,2771811.948
全家中興店,225012043,台北市中山區龍江路２０１號１Ｆ,10796,121.5407246,25.0562769,351967.84,2772216.333
全家榮星店,225169569,台北市中山區龍江路３５２號,19680,121.5408433,25.0658607,351991.268,2773277.643
全家鑫豐店,225157030,台北市中山區龍江路３５６巷７２號,53839,121.538028,25.065893,351707.306,2773284.288
全家新南京店,287725827,台北市中山區龍江路９５號１樓,54112,121.5405696,25.0513748,351946.345,2771673.577
