name,tel,address,商店編號,lng,lat,X,Y
全家明曜店,227780326,台北市大安區仁愛路四段１５１巷３４號．３６號,11901,121.5516555,25.0405267,353051.933,2770460.098
全家國泰店,227542056,台北市大安區仁愛路四段２６６巷１５弄１０號１樓,12742,121.5535193,25.0365427,353235.271,2770016.848
全家吉泰店,227001566,台北市大安區仁愛路四段３００巷１１之１號,51421,121.5546715,25.0369724,353352.038,2770063.196
全家仁慈店,227089002,台北市大安區仁愛路四段４８巷６號,10086,121.5470275,25.0371082,352580.912,2770086.495
全家忠愛店,227314580,台北市大安區仁愛路４段２７巷４３號,14560,121.5452829,25.0410747,352409.602,2770527.687
全家金信店,223587145,台北市大安區信義路二段１０４號１樓,55507,121.527538,25.0338325,350610.448,2769744.952
全家義和店,227047661,台北市大安區信義路四段２６５巷８號,53348,121.5541698,25.0337519,353297.606,2769707.058
全家義安店,227015844,台北市大安區信義路四段８８號（部分）,53796,121.5475804,25.0330241,352631.846,2769633.57
全家義興店,227048404,台北市大安區信義路４段１之１０．１之１１號,14506,121.5441502,25.0335261,352286.322,2769692.886
全家華視店,227310238,台北市大安區光復南路１１６巷２６號,14497,121.5565761,25.0429093,353551.227,2770718.673
全家國父紀念館店,227755468,台北市大安區光復南路２９２號（範圍如附圖）,58222,121.557358,25.0392336,353625.778,2770310.738
全家光新店,227849586,台北市大安區光復南路４１８號,11234,121.5573165,25.0365381,353618.408,2770012.249
全家台師店,223682773,台北市大安區和平東路一段１６２號,56569,121.5270005,25.0256415,350546.342,2768838.36
全家和茂店,227371408,台北市大安區和平東路三段５８號１樓,53269,121.548167,25.024361,352680.748,2768673.472
全家和東店,227324425,台北市大安區和平東路二段１０２之３號１樓,11020,121.5417603,25.0249196,352034.904,2768742.286
全家國立教育店,227325341,台北市大安區和平東路二段１３４號１樓,62801,121.5464801,25.0234536,352509.442,2768574.801
全家和新店,283691009,台北市大安區和平東路二段２２號,11205,121.536271,25.025621,351481.812,2768825.945
全家和復店,227540370,台北市大安區和平東路二段２６１號，２６３號,11572,121.5439412,25.0249481,352255.015,2768743.074
全家成功店,227550428,台北市大安區和平東路二段３１１巷３２號,10552,121.5450559,25.0256433,352368.328,2768818.86
全家台科店,227384936,台北市大安區基隆路４段４３號地下一樓第三餐廳,58658,121.5410802,25.0119407,351950.791,2767305.575
全家大安店,227117896,台北市大安區大安路一段２０號,10076,121.5460856,25.0440921,352494.183,2770861.003
全家和信店,227556391,台北市大安區安和路一段１０４號,56909,121.552268,25.034158,353106.189,2769754.085
全家敦安店,227019097,台北市大安區安和路一段１１２巷２７號,10038,121.5503778,25.0340368,352915.317,2769742.703
全家安富店,227755484,台北市大安區安和路一段４９巷１０號,58248,121.5517087,25.0384537,353054.844,2770230.45
全家東方店,227039578,台北市大安區安和路二段１０巷１０號壹樓及地下室,50625,121.5516969,25.032496,353046.593,2769570.631
全家樂和店,227329745,台北市大安區安和路二段１６９號,56351,121.5501796,25.0281922,352888.386,2769095.612
全家安居店,227375452,台北市大安區安居街７６號,10121,121.5533299,25.0196611,353196.183,2768147.371
全家師大店,223918196,台北市大安區師大路７９號,10051,121.5285941,25.0233969,350704.452,2768588.015
全家延安二店,287717379,台北市大安區延吉街１３０號,53434,121.5547133,25.0401385,353360.0,2770413.805
全家延孝店,227405319,台北市大安區延吉街１３５號之三，一樓,10564,121.554397,25.0423395,353330.69,2770657.913
全家延安店,287716553,台北市大安區延吉街１５８號,11636,121.5548506,25.0395322,353373.137,2770346.508
全家北科店,227762695,台北市大安區建國南路一段８１號,56573,121.537739,25.0435178,351651.361,2770806.472
全家建國店,227540801,台北市大安區建國南路二段１５１巷３８號１樓,10823,121.5392359,25.028656,351784.629,2769158.849
全家建南店,227318185,台北市大安區建國南路１段１５６，１５８號,14424,121.536824,25.0411955,351556.26,2770550.268
全家興忠店,227419504,台北市大安區復興南路一段２００號,10258,121.5434452,25.0397231,352222.571,2770379.988
全家興仁店,287732350,台北市大安區復興南路一段２１７號,11029,121.5439589,25.0390985,352273.658,2770310.254
全家復豪店,227098606,台北市大安區復興南路一段３６２號,61762,121.543307,25.035221,352203.26,2769881.517
全家興和店,227845780,台北市大安區復興南路二段１５３號,12065,121.5437837,25.0282649,352243.073,2769110.59
全家興南店,227552227,台北市大安區復興南路二段８號及１０號,10197,121.5433475,25.0328736,352204.549,2769621.491
全家復豐店,227555927,台北市大安區復興南路１段２５７號１樓,59160,121.544113,25.034036,352283.176,2769749.399
全家懷生店,227763718,台北市大安區復興南路１段７０號,14559,121.544113,25.034036,352283.176,2769749.399
全家正興店,227316936,台北市大安區忠孝東路三段２４８巷６號,59760,121.5411411,25.0412708,351991.937,2770553.905
全家安勝店,227790263,台北市大安區忠孝東路四段１８１巷６號１樓,61447,121.5507046,25.0419442,352957.671,2770618.117
全家統領店,227112125,台北市大安區忠孝東路四段１８１巷７弄２１號１樓部份,58020,121.5517587,25.0421803,353064.306,2770643.127
全家延吉店,227412630,台北市大安區忠孝東路四段２１６巷３１號,10003,121.553054,25.0395997,353191.942,2770355.921
全家昌隆店,287733114,台北市大安區忠孝東路３段２１７巷２弄１號１樓,16506,121.5398526,25.0437034,351864.837,2770824.725
全家龍普店,287733622,台北市大安區忠孝東路４段１７０巷６弄２號,14423,121.5507892,25.0413024,352965.445,2770546.945
全家忠孝光復店,227790255,台北市大安區忠孝東路４段３０２號１樓東側部分,60528,121.5563871,25.0411551,353530.085,2770524.594
全家忠孝延吉店,227754165,台北市大安區忠孝東路４段３１５號１樓,60878,121.5559331,25.0416119,353484.818,2770575.675
全家忠孝店,227780668,台北市大安區敦化南路一段１９０巷７號,52097,121.5482022,25.0427355,352706.126,2770708.463
全家新遠企店,227323623,台北市大安區敦化南路二段２６１號,14201,121.5491738,25.0256108,352783.829,2768810.802
全家敦鼎店,227018593,台北市大安區敦化南路二段７７號１樓右側空間,58876,121.5491676,25.0301126,352788.546,2769309.396
全家敦新店,227057671,台北市大安區敦安里仁愛路四段１１２巷５號一樓,15882,121.5497423,25.0369716,352854.676,2770068.428
全家通昌店,223256420,台北市大安區文昌街１４２號壹樓全部,54482,121.5532532,25.0324858,353203.619,2769567.822
全家新生南路店,227035220,台北市大安區新生南路一段１６３號,10085,121.532988,25.0343293,351160.973,2769794.003
全家大森店,227005349,台北市大安區新生南路一段１６５巷３５號,56790,121.5360515,25.0342136,351469.953,2769777.842
全家台新店,223626210,台北市大安區新生南路三段８４之８號,11819,121.5334736,25.0188981,351191.46,2768084.417
全家新北科店,227712202,台北市大安區新生南路１段１號光華樓１樓部分空間,59674,121.533227,25.044019,351196.72,2770866.909
全家泰順店,223634365,台北市大安區泰順街２０號１樓（部分範圍）,59500,121.5314138,25.0252791,350991.257,2768793.386
全家潮州店,223917239,台北市大安區潮州街８０號１樓,62990,121.5243668,25.0291353,350284.789,2769228.205
全家濟南二店,287734589,台北市大安區濟南路３段７號,51735,121.5336487,25.0403001,351234.804,2770454.567
全家瑞和店,227049888,台北市大安區瑞安街１３５巷２８號１樓,14503,121.5416741,25.0264997,352028.091,2768917.38
全家羅騰店,223651801,台北市大安區羅斯福路三段２６９巷２號,54169,121.5306737,25.0189915,350909.017,2768097.824
全家羅中店,223924175,台北市大安區羅斯福路二段１７號１Ｆ,10706,121.521944,25.0281109,350039.07,2769117.415
全家台福店,283691892,台北市大安區羅斯福路四段１號腳踏車部部份空間,51140,121.5374454,25.0178915,351591.076,2767968.599
全家台大楓林店,223675017,台北市大安區羅斯福路四段１號（女九餐廳）,57548,121.5348371,25.0147271,351324.063,2767620.977
全家台大二活店,223661941,台北市大安區羅斯福路四段８５號（第二學生活動中心）,12701,121.536638,25.0129394,351503.67,2767421.019
全家古亭店,223673372,台北市大安區羅斯福路２段１０３號,14431,121.5245431,25.0246795,350297.202,2768734.515
全家台一宿舍店,223672617,台北市大安區羅斯福路４段１號台大大一女北側餐廳,60038,121.5346063,25.0153554,351301.523,2767690.815
全家臨江店,227322438,台北市大安區臨江街２巷２號,57497,121.5568909,25.0293856,353567.02,2769220.549
全家二繽店,227372960,台北市大安區辛亥路三段３３０號,55392,121.5530214,25.0135446,353157.814,2767470.286
全家辛亥店,223778503,台北市大安區辛亥路二段１７１巷３號,10462,121.5412116,25.0219394,351975.979,2768412.816
全家通和店,227331503,台北市大安區通安街７７號,14420,121.5533121,25.0303352,353207.017,2769329.574
全家台興店,227324804,台北市大安區長興街５０號,55746,121.5453762,25.0158108,352388.954,2767729.537
