name,tel,address,商店編號,lng,lat,X,Y
全家新莊新中信店,289927949,新北市新莊區中信街４１號１樓,51872,121.4500999,25.0506933,342817.909,2771699.625
全家新莊福前店,285218649,新北市新莊區中原東路５６號１樓,58475,121.4639314,25.0545852,344218.301,2772114.758
全家新莊中原店,289920047,新北市新莊區中原路２９７號,11404,121.447695,25.05422,342579.755,2772093.012
全家新莊福壽店,229908643,新北市新莊區中原路４５號,10558,121.4582137,25.0542179,343640.982,2772080.641
全家新莊中環店,229906924,新北市新莊區中和街１５５巷２號１樓＋２樓部分,50043,121.447293,25.04994,342533.755,2771619.44
全家新莊和運店,229907549,新北市新莊區中和街１７號１樓,57219,121.4480697,25.0435168,342603.959,2770907.131
全家新莊副都店,285218124,新北市新莊區中央路４３７號１樓,58199,121.4478903,25.0579598,342604.212,2772506.993
全家新莊中央店,285219448,新北市新莊區中央路５５８號１樓,59259,121.4488983,25.0589369,342707.147,2772614.046
全家新莊新幸福店,229969520,新北市新莊區中平路１８４巷１０弄７號１樓,51470,121.4452691,25.0483395,342327.52,2771444.52
全家新莊狀元店,229984996,新北市新莊區中平路２６８號,10879,121.4449228,25.050131,342294.861,2771643.341
全家新莊新中平店,229966949,新北市新莊區中平路２９０號１樓,61262,121.4450376,25.0513012,342307.933,2771772.816
全家新莊忠承店,229906231,新北市新莊區中平路３７７巷２號１樓,62209,121.4443221,25.0526555,342237.47,2771923.643
全家新莊中悅店,285215084,新北市新莊區中平路４００號１樓,60118,121.4447822,25.054109,342285.741,2772084.094
全家新莊中永店,289920165,新北市新莊區中平路６６號,11919,121.4450087,25.0444599,342296.308,2771015.131
全家新莊中榮店,229983442,新北市新莊區中榮街８４號,11589,121.4481512,25.0528861,342624.086,2771944.746
全家新莊新建店,229013769,新北市新莊區中正路新建巷４０號１樓,51469,121.4145494,25.0214545,339193.164,2768502.782
全家新莊新正店,229900756,新北市新莊區中正路２６１號全部,61497,121.449859,25.0354016,342774.202,2770006.253
全家新莊福海店,222038885,新北市新莊區中正路４０１號,11846,121.4452831,25.0343857,342311.176,2769899.032
全家新莊龍鳳店,229017635,新北市新莊區中正路７２９號,50272,121.422867,25.0287761,340042.003,2769303.898
全家新莊安和店,229036055,新北市新莊區中正路８２９巷２２弄１號,12131,121.4215784,25.0271078,339909.814,2769120.637
全家新莊迴龍店,229011240,新北市新莊區中正路８９５－２６號１樓,55189,121.4121451,25.0218627,338951.057,2768550.836
全家新莊新和港店,229938945,新北市新莊區中港一街１４３號,10402,121.4478654,25.0449842,342585.21,2771069.891
全家新莊中港店,229944832,新北市新莊區中港路１２６號,10544,121.4553924,25.040333,343338.785,2770546.052
全家新莊中美店,222796927,新北市新莊區中港路４１３＆４１５號１樓,14479,121.452065,25.047368,343011.96,2771329.057
全家新莊華運店,289921279,新北市新莊區中華路一段６７號１樓＋地下室,60553,121.4520584,25.0397657,343001.661,2770487.064
全家新莊華寧店,229946014,新北市新莊區中華路１段８號１樓,14469,121.4519024,25.0363397,342981.58,2770107.793
全家新莊首富店,229902685,新北市新莊區中華里中華路二段５號,12393,121.4535461,25.0453216,343158.805,2771100.697
全家新莊五工店,222988045,新北市新莊區五工路７０號１樓＋Ｂ１,62569,121.4578941,25.063645,343620.644,2773125.118
全家新莊五權店,222980962,新北市新莊區五權一路３６號１樓＆２樓,60790,121.4575476,25.0653965,343587.902,2773319.506
全家新莊新德勝店,222014708,新北市新莊區八德街１３５號,53168,121.4238393,25.0202081,340129.073,2768353.79
全家新莊八德店,222014759,新北市新莊區八德街１５巷２號，１７號,10523,121.4254662,25.0223544,340296.022,2768589.598
全家新莊泰園店,229757564,新北市新莊區公園一路１０３號１樓,59493,121.4446913,25.0380889,342256.173,2770309.87
全家新莊新市店,285212417,新北市新莊區化成路４３１巷７６號,54920,121.4625903,25.0599021,344089.692,2772705.174
全家新莊福成店,229948672,新北市新莊區化成路５５２號１樓及地下室,54648,121.4663738,25.0538015,344463.728,2772025.163
全家新莊樹成店,285214163,新北市新莊區化成路７３８號,56192,121.4656915,25.0574502,344399.476,2772430.058
全家新莊維新店,222041652,新北市新莊區四維路１４７號１樓,50361,121.422773,25.022153,340023.973,2768570.454
全家新莊德祐店,222083680,新北市新莊區四維路１５０巷９號１樓,50510,121.4222498,25.0233568,339972.726,2768704.398
全家新莊新雙鳳店,229011246,新北市新莊區天祥街２號,53791,121.4175515,25.0268245,339503.08,2769094.003
全家新莊天祥店,229013468,新北市新莊區天祥街２９號１樓,61163,121.4172202,25.0281596,339471.377,2769242.266
全家新莊天美店,229030732,新北市新莊區天祥街４２號１樓,14524,121.416918,25.028899,339441.838,2769324.516
全家新莊金富店,222023655,新北市新莊區富國路１７６巷７號１樓,50976,121.4242911,25.0240746,340179.651,2768781.501
全家新莊昌盛店,222764464,新北市新莊區幸福里昌盛街６７號一樓,12558,121.4549343,25.0500424,343304.842,2771621.954
全家新莊建中店,222779137,新北市新莊區建中街１１８號、１２０號、１２２號,11804,121.445636,25.0366388,342349.652,2770148.168
全家新莊學輔店,229018239,新北市新莊區建國一路２號,18879,121.4334199,25.0320754,341111.14,2769656.953
全家新莊建國店,229081905,新北市新莊區建國一路４９號１樓右半,14176,121.4344377,25.0306852,341212.065,2769501.791
全家新莊建興店,222015482,新北市新莊區建安街１８號１樓,12458,121.4286654,25.0263664,340624.031,2769030.203
全家新莊建安店,222044299,新北市新莊區建安街４２號,11078,121.4275466,25.0250024,340509.375,2768880.442
全家新莊新園寧店,229949325,新北市新莊區建興街１０１號,52301,121.4496539,25.0393647,342758.534,2770445.428
全家新莊新建明店,222048981,新北市新莊區後港一路４８號１樓,52392,121.4259186,25.0261523,340346.566,2769009.71
全家新莊北醫店,229944981,新北市新莊區思源路１２７號,52848,121.4594267,25.0429446,343749.143,2770830.662
全家新莊宏匯店,285213845,新北市新莊區思源路５５５號１樓,61745,121.4595736,25.058357,343783.403,2772537.508
全家新莊新頭前店,285219644,新北市新莊區思源路５９７號１樓,61263,121.4593392,25.0598333,343761.619,2772701.287
全家新莊天成店,229018545,新北市新莊區新北大道七段２１９號,14414,121.4137779,25.0301496,339126.588,2769466.738
全家新莊城邦店,285216513,新北市新莊區新北大道三段７號１樓,57645,121.458193,25.060225,343646.479,2772745.988
全家新莊通樹店,222043156,新北市新莊區新樹路２８８號１樓,58641,121.4324974,25.0118563,340992.131,2767418.634
全家新莊新樹店,222075970,新北市新莊區新樹路６１３號１樓,16789,121.4336822,25.0038272,341101.426,2766527.977
全家新莊新泰店,229972384,新北市新莊區新泰路１４６號,10854,121.4479012,25.0371756,342578.902,2770204.998
全家新莊新立店,229922460,新北市新莊區新泰路２２５巷１號１樓,10990,121.4463951,25.0391547,342429.447,2770425.94
全家新莊泰豐店,222026118,新北市新莊區新泰路３巷１號,57043,121.4496457,25.0322125,342748.633,2769653.287
全家新莊金泰店,229902069,新北市新莊區新泰路３０５巷１號１樓,54826,121.4453033,25.0409218,342321.53,2770622.922
全家新莊武廟店,229975613,新北市新莊區新莊路４３５號，４３５號之１,10396,121.4502313,25.0334823,342809.335,2769793.249
全家新莊海山店,222042064,新北市新莊區新莊路７４１號１樓,10583,121.4430312,25.0328043,342081.93,2769726.494
全家新莊新豐店,222020432,新北市新莊區新豐街１３號１樓,58897,121.4485341,25.0342767,342639.084,2769883.195
全家新莊昌平店,229906374,新北市新莊區昌平街５０號,10514,121.4547874,25.0535867,343294.505,2772014.677
全家新莊新明中店,229985116,新北市新莊區明中街１８號１樓,60554,121.4583008,25.0388039,343630.316,2770373.348
全家新莊明志店,229014536,新北市新莊區明志路１９號１樓＆２樓,62799,121.4200405,25.0291471,339757.256,2769348.314
全家新莊景德店,222064530,新北市新莊區景德路３８２號,11147,121.4461062,25.0335286,342393.142,2769803.149
全家新莊光明店,222062208,新北市新莊區民安西路１９２號１樓,58926,121.4258971,25.0155435,340330.739,2767834.739
全家新莊民和店,222049299,新北市新莊區民安西路２４７號１樓,50975,121.4261737,25.0135772,340356.124,2767616.634
全家新莊安華店,229667664,新北市新莊區民安西路３２１號１樓＋２樓,59829,121.4277351,25.0112132,340510.668,2767352.976
全家新莊富安店,222046753,新北市新莊區民安路２８５之１號,18786,121.4289199,25.0222788,340644.461,2768577.176
全家新莊民本店,222032338,新北市新莊區民本街２３巷２號１樓,11833,121.428364,25.0196865,340585.029,2768290.713
全家新莊瓊泰店,222049577,新北市新莊區瓊泰路７１號１樓,57947,121.443094,25.028828,342083.202,2769286.021
全家新莊新福義店,229964281,新北市新莊區福壽街１３２號１樓,54337,121.4576943,25.0515524,343585.214,2771786.018
全家新莊仁義店,229962848,新北市新莊區福壽街３８號１Ｆ,10882,121.4583456,25.0483711,343646.909,2771432.921
全家新莊福祿店,289938193,新北市新莊區福壽街８１號１樓,15153,121.4580762,25.0499331,343621.7,2771606.232
全家新莊福樂店,289923468,新北市新莊區福樂街３０號１樓,19458,121.4579438,25.0453823,343602.597,2771102.356
全家新莊新工店,222989786,新北市新莊區福興里五工二路８１號一樓,15779,121.459728,25.0661799,343808.85,2773403.765
全家新莊立信店,229982115,新北市新莊區立信一街１２號,19459,121.4440696,25.0495375,342208.022,2771578.597
全家新莊自成店,229949824,新北市新莊區自信街２號１樓,14475,121.4533065,25.0481069,343138.157,2771409.462
全家新莊自強店,289916578,新北市新莊區自強街２號,12374,121.4548176,25.0455084,343287.332,2771119.921
全家新莊超級店,222045567,新北市新莊區莊崑路２５號１樓,57148,121.4313535,24.999586,340860.949,2766060.957
全家新莊萬安店,222037583,新北市新莊區萬安街８０號,10199,121.4207568,25.0230623,339821.678,2768673.537
全家新莊裕民店,229017969,新北市新莊區裕民街９７號１樓,14681,121.4184687,25.02326,339591.027,2768698.128
全家新莊盛寧店,222030264,新北市新莊區西盛街１５１號１樓,14526,121.428391,25.0182269,340585.878,2768129.021
全家新莊興盛店,222047033,新北市新莊區西盛街２３０號１樓,16264,121.4280502,25.0164376,340549.184,2767931.243
全家新莊盛華店,222046755,新北市新莊區西盛街３９０號１樓,14682,121.4276878,25.0128385,340507.983,2767533.044
全家新莊金豐店,222069828,新北市新莊區豐年街６６號１樓,50788,121.4463791,25.0315558,342418.172,2769584.333
全家新莊豐盛店,222040213,新北市新莊區豐盛二街１１號１樓,62060,121.432364,25.0003668,340963.945,2766146.255
全家新莊祥鳳店,229022674,新北市新莊區雙鳳路１０６號,19179,121.4140661,25.0283491,339153.335,2769266.979
全家新莊三鳳店,229080840,新北市新莊區雙鳳路１３０號,54149,121.4130954,25.0280232,339054.956,2769232.031
全家新莊正龍店,229046684,新北市新莊區龍安路９號１樓,58135,121.4147107,25.0226246,339210.959,2768632.188
