name,tel,address,商店編號,lng,lat,X,Y
全家中和左岸店,222264967,新北市中和區中原三街３號,63420,121.4876352,25.0101778,346554.801,2767169.476
全家中和金原店,282211769,新北市中和區中原街１２６號１樓,57078,121.485882,25.0110867,346378.985,2767272.117
全家中和新漳和店,222463806,新北市中和區中和路２４號１樓,55342,121.4996953,25.0018114,347761.703,2766229.331
全家中和中和店,232338551,新北市中和區中和路４８０號１Ｆ,10648,121.5126412,25.0041427,349071.182,2766473.128
全家中和中安店,229256006,新北市中和區中安街１９２號,10814,121.5113141,24.9990969,348931.1,2765915.758
全家中和中鼎店,229294187,新北市中和區中安里中安街８０號一樓,15959,121.5121856,25.0019929,349022.585,2766235.534
全家中和中環店,222267465,新北市中和區中山路三段１１１號１樓,15451,121.4747472,25.0058907,345248.734,2766709.241
全家中和環球店,232349461,新北市中和區中山路三段１２０之１１號,12894,121.473636,25.0083403,345139.638,2766981.809
全家中和中漢店,222239355,新北市中和區中山路三段１４６－２號,50946,121.4736931,25.0066945,345143.348,2766799.463
全家中和勝鴻店,282451477,新北市中和區中山路二段２巷４５弄１號１樓,52373,121.5024845,25.0068413,348049.377,2766783.298
全家中和威利店,222474176,新北市中和區中山路二段２９１號１樓,60551,121.4957431,25.0018849,347362.893,2766241.893
全家中和元氣店,222256901,新北市中和區中山路３段３９號２樓,14133,121.477696,25.005313,345545.634,2766641.911
全家中和和興店,222446249,新北市中和區中正路１１號，１３號,11379,121.5029951,24.9932931,348084.337,2765282.213
全家中和德民店,222214027,新北市中和區中正路１１８６號１樓,54986,121.4807204,25.010317,345857.098,2767192.701
全家中和鎮順店,222427811,新北市中和區中正路１６７巷１６號、１８號１樓,52318,121.4981916,24.9927524,347598.816,2765227.691
全家中和力行店,222435392,新北市中和區中正路２４２號,50042,121.4960237,24.9941414,347381.698,2765383.955
全家中和國華店,232343009,新北市中和區中正路８６８－１號,19408,121.4842808,25.005894,346210.951,2766698.809
全家中和巴黎店,222407145,新北市中和區中興街２３５巷１號,14283,121.5007844,24.9896544,347856.736,2764881.679
全家中和仁義店,229484666,新北市中和區仁愛街３６號,18806,121.510907,24.988332,348876.914,2764723.959
全家中和佳和店,222450773,新北市中和區佳和里中山路二段１３２號、１３４號１樓,11376,121.5023034,25.0034607,348026.961,2766409.085
全家中和保健店,229444222,新北市中和區保健路１７號,11433,121.5080883,24.9982409,348604.466,2765824.533
全家中和水源店,282459519,新北市中和區保平路３２０號、３２２號,50305,121.507272,25.0044067,348529.595,2766508.325
全家中和南勢角店,289412772,新北市中和區南山路３９９巷１０號１樓,14461,121.5071434,24.9904674,348499.613,2764964.64
全家中和勝華店,222425933,新北市中和區南華路６７號壹樓,56490,121.5046943,24.9973646,348260.825,2765731.254
全家中和平興店,229431824,新北市中和區和平街２０號,19031,121.5099135,24.9901784,348778.876,2764929.556
全家中和和平店,229444304,新北市中和區和平街５６號１樓；５４巷１弄１號１樓,11380,121.5085295,24.9908615,348640.006,2765006.748
全家中和新慶店,282217342,新北市中和區員山路１３７號１樓,51461,121.480914,24.996102,345858.989,2765618.105
全家中和員山店,222267296,新北市中和區員山路３２５之４號、之５號１樓,10050,121.4812104,25.0008676,345894.821,2766145.582
全家中和員科店,222221264,新北市中和區員山路５０４之１號１樓,60255,121.4795978,25.0082527,345741.234,2766965.341
全家中和員慶店,222236924,新北市中和區員山路７３號一樓,56681,121.4807006,24.9939681,345834.8,2765382.008
全家中和興國店,229635114,新北市中和區國光街１０４號１樓,52448,121.4702185,25.0004937,344784.91,2766116.649
全家中和安邦店,222460866,新北市中和區圓通路１６９號,11573,121.4977101,24.9952489,347553.278,2765504.727
全家中和圓峰店,222433191,新北市中和區圓通路２２６號１樓,54037,121.4951929,24.9930624,347296.512,2765265.382
全家中和圓通店,222454902,新北市中和區圓通路３０７之５號,10520,121.493319,24.9907961,347104.574,2765016.481
全家中和凌雲店,222427725,新北市中和區圓通路３６７巷２號,18708,121.491285,24.9893961,346897.535,2764863.708
全家中和錦順店,222426992,新北市中和區圓通路３９５號１樓,52618,121.489533,24.9890207,346720.222,2764824.1
全家中和民德店,229640401,新北市中和區壽德里壽德街２６號１樓,12294,121.4665053,24.9943416,344402.415,2765439.508
全家中和仁勇店,229400962,新北市中和區大勇街２０號１樓,53483,121.5173402,24.9928806,349531.803,2765220.615
全家中和安樂店,229400326,新北市中和區安樂路８１號,50943,121.5127597,24.9943037,349071.185,2765383.293
全家中和廣場店,282278301,新北市中和區平河里中正路７１２號一樓,15912,121.4859807,24.9970274,346371.549,2765714.876
全家中和南中店,222464585,新北市中和區廣福路６２號１樓,51609,121.5035483,25.0019182,348150.722,2766236.859
全家中和圓順店,222289923,新北市中和區建一路１４１號,50217,121.4882435,25.0007357,346604.527,2766123.037
全家中和遠建店,282272991,新北市中和區建一路１７６號１樓,12613,121.4879325,24.9972744,346568.86,2765740.033
全家中和建新店,282263686,新北市中和區建八路２８號１樓,54115,121.4873215,24.9982871,346508.44,2765852.882
全家中和和連店,282457861,新北市中和區建和里連城路２６５巷１號一樓,12991,121.4914861,24.9962635,346926.298,2765624.075
全家中和秀欣店,222432645,新北市中和區復興路２６７號１樓及地下室,60359,121.5025637,24.9901752,348036.978,2764937.375
全家中和中興店,282423542,新北市中和區復興里中興街１１１號，１１３號,12087,121.500015,24.992253,347782.256,2765170.343
全家中和德穗店,289526580,新北市中和區德光路２４．２６號１樓,16634,121.4708378,25.0044495,344852.361,2766554.068
全家中和鑫發店,229434443,新北市中和區忠孝街１０５號,59037,121.511902,24.9864777,348975.098,2764517.486
全家中和新忠店,229425376,新北市中和區忠孝街２７號１樓,51816,121.5103868,24.9829918,348817.907,2764133.09
全家中和新生店,232342883,新北市中和區新生街１３２號,11044,121.4834879,25.0011002,346124.983,2766168.769
全家中和新正店,222263432,新北市中和區新生街１９０號１樓,52742,121.4836209,24.9995178,346136.446,2765993.361
全家中和新中穗店,222253237,新北市中和區新生街８號１樓,55452,121.483079,25.0045843,346088.031,2766555.111
全家中和捷勝店,222426396,新北市中和區景安路１２８號１樓,58388,121.5051069,24.9945399,348299.021,2765417.949
全家中和摩天店,289423447,新北市中和區景平路１８２號１樓,12640,121.5164034,24.9924086,349436.672,2765169.374
全家東森一號店,289434426,新北市中和區景平路２５８號１樓,62127,121.5151204,24.9927011,349307.523,2765203.187
全家中和景會店,222424705,新北市中和區景平路４３３號１樓,50092,121.5009102,24.9957696,347876.924,2765558.821
全家中和景平店,289422184,新北市中和區景平路４７８號,11240,121.505272,24.9937212,348314.686,2765327.091
全家中和勝平店,222474417,新北市中和區景平路５１７、５１９號１樓,12803,121.4991432,24.9988407,347702.336,2765900.931
全家中和福真店,222469262,新北市中和區景平路７０１、７０１之１號２樓,15241,121.4963704,25.0034401,347428.118,2766413.435
全家中和景秀店,286680018,新北市中和區景平路７１—２號,11024,121.5193012,24.9913149,349727.849,2765045.045
全家中和福中店,222460574,新北市中和區景平路７１０號１號,61445,121.496846,25.0026397,347475.137,2766324.255
全家中和朕新店,229426294,新北市中和區景德街１２４號１樓,53328,121.5145429,24.9911045,349247.293,2765026.997
全家中和景明店,229466803,新北市中和區景新街２１２號１樓,55781,121.50705,24.995151,348495.897,2765483.469
全家中和新平店,289411655,新北市中和區景新街２６５、２６７號,12659,121.5088887,24.9939893,348680.074,2765352.764
全家中和雙捷店,289417765,新北市中和區景新街４６８號,57923,121.5135727,24.9872662,349144.701,2764602.966
全家中和景欣店,229439032,新北市中和區景本里景新街３８５號，３８５號之１,11866,121.5124901,24.9902202,349039.01,2764931.33
全家中和橋安店,222424182,新北市中和區橋和路１２０號,19159,121.49224,25.00566,347013.972,2766663.93
全家中和橋和店,222445415,新北市中和區橋和路１５２號，１５６號,11558,121.494073,25.006111,347199.529,2766711.823
全家中和嘉穗店,222221242,新北市中和區民利街９１號１樓,53129,121.4779093,24.9978978,345557.938,2765820.401
全家中和國院店,222213432,新北市中和區民安街５１號１樓,50380,121.4796341,25.0000149,345734.661,2766052.925
全家中和光明店,289535241,新北市中和區民生街８５巷２弄１號１樓,52825,121.4689363,25.0044641,344660.461,2766557.852
全家中和福美店,222435180,新北市中和區永和路７４號１樓,51460,121.4979148,25.0052301,347586.192,2766609.956
全家中和永貞店,229288350,新北市中和區永貞路２４４號,10378,121.514287,25.003874,349236.965,2766441.546
全家中和漢陽店,222230343,新北市中和區瑞穗里中山路三段１７２號１樓,16021,121.4728251,25.0064707,345055.463,2766775.664
全家中和萊陽店,282456393,新北市中和區瓦嗂里光華街１號３號一樓,15567,121.5039073,25.0048103,348190.493,2766556.771
全家中和新福祥店,222421670,新北市中和區福祥路４２號,63130,121.4995189,25.0039407,347746.51,2766465.356
全家中和新秀店,229426524,新北市中和區秀朗路三段４４號１樓,52255,121.5263669,24.9958097,350446.467,2765535.087
全家中和秀山店,289421005,新北市中和區立人街６５號，６７號,11076,121.520053,24.9941509,349807.164,2765358.313
全家中和德勝店,222286849,新北市中和區立德街１５０號１樓,60497,121.4862239,25.0086632,346410.492,2767003.318
全家中和建業店,222224223,新北市中和區立德街１８９號１樓,18709,121.4848575,25.0091007,346273.128,2767053.315
全家中和秀吉店,229412382,新北市中和區自立路１７號,59620,121.5223999,24.9959893,350046.272,2765559.337
全家中和大智店,229494154,新北市中和區自立路３６號１樓及地下室,61511,121.5226672,24.9926692,350069.245,2765191.332
全家中和新興店,229427198,新北市中和區興南路二段３６號,10927,121.5067384,24.98541,348452.563,2764404.965
全家中和南興店,229420466,新北市中和區興南路二段５號,18989,121.5081484,24.98639,348596.089,2764511.937
全家中和烘爐店,229468782,新北市中和區興南路２段１２０號１樓,57717,121.5044145,24.9838478,348216.07,2764234.531
全家中和自強店,232346883,新北市中和區莒光路１３１號,11298,121.472665,25.0017894,345033.46,2766257.369
全家中和莒城店,222230924,新北市中和區莒光路１８１號,51145,121.472795,24.9991039,345043.23,2765959.789
全家中和華隆店,229414221,新北市中和區華新街１０９巷１－３號,50998,121.509098,24.9824309,348687.125,2764072.398
全家中和華夏店,229479070,新北市中和區華新街２０２號，２０４號,11584,121.5066433,24.9819561,348438.751,2764022.539
全家中和華樹店,229493985,新北市中和區華新街５５號１樓,56133,121.5080273,24.9844238,348581.469,2764294.308
全家中和華福店,229506983,新北市中和區華順街１１７號，１１９號,10976,121.4653881,24.9966576,344292.551,2765697.293
全家中和華順店,229542123,新北市中和區華順街５９號１樓,12907,121.4664427,24.9984278,344401.216,2765892.147
全家中和安勝店,222430244,新北市中和區連勝街５９號,50568,121.4978029,24.9972115,347565.054,2765721.989
全家中和連勝店,222490286,新北市中和區連城路２３１號１樓及２樓,11557,121.4940578,24.9973638,347187.229,2765743.051
全家中和世紀店,282278716,新北市中和區連城路２６８之１號１樓,14458,121.4864578,24.9966373,346419.223,2765671.133
全家中和連福店,232347896,新北市中和區連城路３９１號，３９３號,11790,121.4864381,24.9960974,346416.567,2765611.359
全家中和新后店,222216706,新北市中和區連城路４６９巷２３號１樓,53405,121.4836705,24.9950103,346135.868,2765494.08
全家中和連新店,232346707,新北市中和區連城路５２１之１號１樓,55031,121.481989,24.9951449,345966.309,2765510.887
全家中和錦中店,222458753,新北市中和區錦中里錦和路３５６號１樓,12578,121.4905436,24.9911661,346824.879,2765060.576
全家中和錦福店,282453548,新北市中和區錦和路９５號１樓,54485,121.4901217,24.9956057,346787.769,2765552.754
